2024-166B               
1 61180U 24166B   26067.67341263  .00038147  00000+0  25198-3 0  9998
2 61180  96.6921 322.5475 0002182 351.2198   8.9031 15.75502359 84916
STARLINK-11601 [DTC]    
1 63110U 25039G   26068.48674689  .00296895  00000+0  22193-2 0  9991
2 63110  42.9973 238.0576 0001737 223.3522 136.7209 15.71014558 59587
